[{"OBJECT_NAME":"STARLINK-3352","OBJECT_ID":"2022-005AV","EPOCH":"2026-03-09T21:54:30.530304","MEAN_MOTION":15.2466211,"ECCENTRICITY":0.00016254,"INCLINATION":53.1885,"RA_OF_ASC_NODE":295.7169,"ARG_OF_PERICENTER":135.3968,"MEAN_ANOMALY":224.7162,"EPHEMERIS_TYPE":0,"CLASSIFICATION_TYPE":"U","NORAD_CAT_ID":51147,"ELEMENT_SET_NO":999,"REV_AT_EPOCH":22880,"BSTAR":0.0019228905,"MEAN_MOTION_DOT":0.00048096,"MEAN_MOTION_DDOT":0},{"OBJECT_NAME":"NOAA 17 DEB","OBJECT_ID":"2002-032AF","EPOCH":"2026-03-09T00:24:06.552000","MEAN_MOTION":15.25501717,"ECCENTRICITY":0.00030847,"INCLINATION":98.6472,"RA_OF_ASC_NODE":92.5947,"ARG_OF_PERICENTER":165.9893,"MEAN_ANOMALY":194.1428,"EPHEMERIS_TYPE":0,"CLASSIFICATION_TYPE":"U","NORAD_CAT_ID":48614,"ELEMENT_SET_NO":999,"REV_AT_EPOCH":26420,"BSTAR":0.01090047,"MEAN_MOTION_DOT":0.00286783,"MEAN_MOTION_DDOT":0}]
